EUTELSAT KONNECT        
1 45027U 20005B   25197.90114251  .00000056  00000+0  00000+0 0  9991
2 45027   0.0584  90.7495 0000690 138.9278  36.9215  1.00267348 20968
EUTELSAT QUANTUM        
1 49056U 21069B   25197.92435095  .00000133  00000+0  00000+0 0  9998
2 49056   0.0091   5.8493 0001808 124.1852 185.4069  1.00271597 14566
EUTELSAT KONNECT VHTS   
1 53765U 22110A   25197.98685909  .00000024  00000+0  00000+0 0  9994
2 53765   0.0501  95.0574 0002756  37.0150 160.9464  1.00270922 10420
EUTELSAT HOTBIRD 13F    
1 54048U 22134A   25197.90114251  .00000094  00000+0  00000+0 0  9991
2 54048   0.0690 285.4111 0001932  73.8043 273.1724  1.00270692 10015
EUTELSAT HOTBIRD 13G    
1 54225U 22146A   25198.13168628  .00000094  00000+0  00000+0 0  9994
2 54225   0.0568 239.2198 0002079 302.9687 173.3906  1.00269630  9854
EUTELSAT 10B            
1 54259U 22157A   25197.91689759  .00000075  00000+0  00000+0 0  9990
2 54259   0.0504  92.6786 0001948  42.0390 140.3242  1.00269672  9686
EUTELSAT 36D            
1 59346U 24059A   25197.92201094  .00000163  00000+0  00000+0 0  9996
2 59346   0.0177  47.4414 0000450 138.5017 116.8308  1.00272271  4780
